{
  "links" : {
    "next" : "https://api.nasa.gov/neo/rest/v1/feed?start_date=1995-01-09&end_date=1995-01-09&detailed=true&api_key=t0TVs3DtDT2H8Oy2Zy8m2eVrNsAVKAexjcZXUckd",
    "prev" : "https://api.nasa.gov/neo/rest/v1/feed?start_date=1995-01-07&end_date=1995-01-07&detailed=true&api_key=t0TVs3DtDT2H8Oy2Zy8m2eVrNsAVKAexjcZXUckd",
    "self" : "https://api.nasa.gov/neo/rest/v1/feed?start_date=1995-01-08&end_date=1995-01-08&detailed=true&api_key=t0TVs3DtDT2H8Oy2Zy8m2eVrNsAVKAexjcZXUckd"
  },
  "element_count" : 1,
  "near_earth_objects" : {
    "1995-01-08" : [ {
      "links" : {
        "self" : "https://api.nasa.gov/neo/rest/v1/neo/2446862?api_key=t0TVs3DtDT2H8Oy2Zy8m2eVrNsAVKAexjcZXUckd"
      },
      "neo_reference_id" : "2446862",
      "name" : "446862 (2001 VB76)",
      "nasa_jpl_url" : "http://ssd.jpl.nasa.gov/sbdb.cgi?sstr=2446862",
      "absolute_magnitude_h" : 20.3,
      "estimated_diameter" : {
        "kilometers" : {
          "estimated_diameter_min" : 0.2315021222,
          "estimated_diameter_max" : 0.5176544822
        },
        "meters" : {
          "estimated_diameter_min" : 231.5021222103,
          "estimated_diameter_max" : 517.6544821978
        },
        "miles" : {
          "estimated_diameter_min" : 0.1438487052,
          "estimated_diameter_max" : 0.3216554833
        },
        "feet" : {
          "estimated_diameter_min" : 759.5214226325,
          "estimated_diameter_max" : 1698.3415313737
        }
      },
      "is_potentially_hazardous_asteroid" : true,
      "close_approach_data" : [ {
        "close_approach_date" : "1995-01-08",
        "epoch_date_close_approach" : 789552000000,
        "relative_velocity" : {
          "kilometers_per_second" : "7.5907111617",
          "kilometers_per_hour" : "27326.5601819679",
          "miles_per_hour" : "16979.6617975122"
        },
        "miss_distance" : {
          "astronomical" : "0.0509560159",
          "lunar" : "19.8218898773",
          "kilometers" : "7622911.5",
          "miles" : "4736657.5"
        },
        "orbiting_body" : "Earth"
      } ],
      "orbital_data" : {
        "orbit_id" : "22",
        "orbit_determination_date" : "2017-04-06 09:20:19",
        "orbit_uncertainty" : "0",
        "minimum_orbit_intersection" : ".0430579",
        "jupiter_tisserand_invariant" : "4.557",
        "epoch_osculation" : "2458000.5",
        "eccentricity" : ".3482482617619956",
        "semi_major_axis" : "1.458823814474811",
        "inclination" : "4.237961002947924",
        "ascending_node_longitude" : "259.4759789450263",
        "orbital_period" : "643.580228077368",
        "perihelion_distance" : ".950790956866954",
        "perihelion_argument" : "248.4150381128607",
        "aphelion_distance" : "1.966856672082667",
        "perihelion_time" : "2458120.467548905740",
        "mean_anomaly" : "292.8936537794408",
        "mean_motion" : ".5593708201314143",
        "equinox" : "J2000"
      }
    } ]
  }
}